RSP-03                  
1 65732U 98067XL  26033.90971998  .00508006  11474-3  13264-2 0  9996
2 65732  51.6179 226.8088 0005234 241.8921 118.1558 15.94343295 21400
YOTSUBA-KULOVER         
1 65941U 98067XN  26033.53903961  .00109133  00000+0  90922-3 0  9996
2 65941  51.6238 237.9326 0004200 208.3499 151.7270 15.69250811 17969
BOTAN                   
1 65942U 98067XP  26033.52540102  .00275567  00000+0  13749-2 0  9996
2 65942  51.6178 234.8063 0005527 226.6486 133.4055 15.80512064 18007
E-KAGAKU-1              
1 65943U 98067XQ  26033.60316708  .00107496  00000+0  89835-3 0  9994
2 65943  51.6258 237.6202 0003209 222.3729 137.7021 15.69186558 17978
HRC MONOBLOCK CAMERA    
1 66052U 98067XR  26033.98756664  .00045031  00000+0  57903-3 0  9993
2 66052  51.6280 240.1857 0000378  15.4712 344.6292 15.58616618 16978
HTV-X1                  
1 66174U 25241A   26033.53325067  .00009405  00000+0  18249-3 0  9997
2 66174  51.6312 246.1482 0011108  57.0277 303.1777 15.48343227   513
SZ-21 MODULE            
1 66515U 25246C   26034.08880481  .00032260  00000+0  30952-3 0  9998
2 66515  41.4757  55.9274 0003288 269.9133  90.1331 15.65925225 12641
SHENZHOU-22             
1 66645U 25272A   26033.50218254  .00014324  00000+0  18189-3 0  9999
2 66645  41.4673  62.0121 0006388 343.4134  16.6494 15.59105413267642
SOYUZ-MS 28             
1 66664U 25275A   26033.85596265  .00009716  00000+0  18820-3 0  9993
2 66664  51.6309 244.5534 0011034  58.3744 301.8319 15.48349910550932
DUPLEX                  
1 66906U 98067XS  26033.94643260  .00027359  00000+0  42486-3 0  9997
2 66906  51.6285 242.9111 0001577  81.9261 278.1908 15.53750914  9726
1998-067XT              
1 66907U 98067XT  26032.99949417  .00078957  00000+0  95067-3 0  9998
2 66907  51.6262 246.3359 0002703 169.0927 191.0125 15.60110214  9593
1998-067XU              
1 66908U 98067XU  26032.99906644  .00082493  00000+0  99129-3 0  9997
2 66908  51.6258 246.3309 0002588 170.0910 190.0135 15.60143030  9591
